ATLAS CENTAUR 2         
1 00694U 63047A   26085.15849109  .00002024  00000+0  23297-3 0  9990
2 00694  30.3561 103.5989 0547421 225.4385 130.0251 14.12129837133957
THOR AGENA D R/B        
1 00733U 64002A   26084.98865781  .00000170  00000+0  78035-4 0  9991
2 00733  99.1217  99.2144 0032429 209.5065 150.4288 14.34028351240634
SL-3 R/B                
1 00877U 64053B   26084.91072971  .00000175  00000+0  58033-4 0  9991
2 00877  65.0756 283.6794 0080316 287.1154  72.1162 14.61378856269160
SL-8 R/B                
1 02802U 67045B   26085.11423630  .00000279  00000+0  84966-4 0  9999
2 02802  74.0116 317.4173 0064773 320.0353  39.6046 14.45635438 91395
SL-8 R/B                
1 03230U 68040B   26084.94748272  .00003360  00000+0  24888-3 0  9993
2 03230  74.0294 280.4693 0023347  97.8519 262.5321 15.03360187 92451
OAO 2                   
1 03597U 68110A   26084.92611086  .00000223  00000+0  65189-4 0  9992
2 03597  34.9926 174.5686 0005967 323.3382  36.6900 14.47316600 21455
ISIS 1                  
1 03669U 69009A   26085.18110482  .00000112  00000+0  64894-4 0  9992
2 03669  88.4514 153.5092 1707859  55.8955 319.2545 11.30418393350397
SERT 2                  
1 04327U 70009A   26085.10917838  .00000012  00000+0  72502-4 0  9992
2 04327  99.2780  27.3061 0005569 117.5178 253.3202 13.58731323782120
SL-8 R/B                
1 05730U 71119B   26084.86697171  .00006228  00000+0  32665-3 0  9991
2 05730  73.8860 145.4749 0546762 108.6870 257.4431 14.38177664657813
