CCSDS_OMM_VERS = 2.0
CREATION_DATE  = 
ORIGINATOR     = 

OBJECT_NAME    = ATLAS CENTAUR 2
OBJECT_ID      = 1963-047A
CENTER_NAME    = EARTH
REF_FRAME      = TEME
TIME_SYSTEM    = UTC
MEAN_ELEMENT_THEORY = SGP/SGP4

EPOCH          = 2026-03-26T03:48:13.630176
MEAN_MOTION    = 14.12129837
ECCENTRICITY   = .0547421
INCLINATION    = 30.3561
RA_OF_ASC_NODE = 103.5989
ARG_OF_PERICENTER = 225.4385
MEAN_ANOMALY   = 130.0251

EPHEMERIS_TYPE = 0
CLASSIFICATION_TYPE = U
NORAD_CAT_ID   = 694
ELEMENT_SET_NO = 999
REV_AT_EPOCH   = 13395
BSTAR          = .23297E-3
MEAN_MOTION_DOT = .2024E-4
MEAN_MOTION_DDOT = 0

CCSDS_OMM_VERS = 2.0
CREATION_DATE  = 
ORIGINATOR     = 

OBJECT_NAME    = THOR AGENA D R/B
OBJECT_ID      = 1964-002A
CENTER_NAME    = EARTH
REF_FRAME      = TEME
TIME_SYSTEM    = UTC
MEAN_ELEMENT_THEORY = SGP/SGP4

EPOCH          = 2026-03-25T23:43:40.034784
MEAN_MOTION    = 14.34028351
ECCENTRICITY   = .0032429
INCLINATION    = 99.1217
RA_OF_ASC_NODE = 99.2144
ARG_OF_PERICENTER = 209.5065
MEAN_ANOMALY   = 150.4288

EPHEMERIS_TYPE = 0
CLASSIFICATION_TYPE = U
NORAD_CAT_ID   = 733
ELEMENT_SET_NO = 999
REV_AT_EPOCH   = 24063
BSTAR          = .78035E-4
MEAN_MOTION_DOT = .17E-5
MEAN_MOTION_DDOT = 0

CCSDS_OMM_VERS = 2.0
CREATION_DATE  = 
ORIGINATOR     = 

OBJECT_NAME    = SL-3 R/B
OBJECT_ID      = 1964-053B
CENTER_NAME    = EARTH
REF_FRAME      = TEME
TIME_SYSTEM    = UTC
MEAN_ELEMENT_THEORY = SGP/SGP4

EPOCH          = 2026-03-25T21:51:27.046944
MEAN_MOTION    = 14.61378856
ECCENTRICITY   = .0080316
INCLINATION    = 65.0756
RA_OF_ASC_NODE = 283.6794
ARG_OF_PERICENTER = 287.1154
MEAN_ANOMALY   = 72.1162

EPHEMERIS_TYPE = 0
CLASSIFICATION_TYPE = U
NORAD_CAT_ID   = 877
ELEMENT_SET_NO = 999
REV_AT_EPOCH   = 26916
BSTAR          = .58033E-4
MEAN_MOTION_DOT = .175E-5
MEAN_MOTION_DDOT = 0

CCSDS_OMM_VERS = 2.0
CREATION_DATE  = 
ORIGINATOR     = 

OBJECT_NAME    = SL-8 R/B
OBJECT_ID      = 1967-045B
CENTER_NAME    = EARTH
REF_FRAME      = TEME
TIME_SYSTEM    = UTC
MEAN_ELEMENT_THEORY = SGP/SGP4

EPOCH          = 2026-03-26T02:44:30.016320
MEAN_MOTION    = 14.45635438
ECCENTRICITY   = .0064773
INCLINATION    = 74.0116
RA_OF_ASC_NODE = 317.4173
ARG_OF_PERICENTER = 320.0353
MEAN_ANOMALY   = 39.6046

EPHEMERIS_TYPE = 0
CLASSIFICATION_TYPE = U
NORAD_CAT_ID   = 2802
ELEMENT_SET_NO = 999
REV_AT_EPOCH   = 9139
BSTAR          = .84966E-4
MEAN_MOTION_DOT = .279E-5
MEAN_MOTION_DDOT = 0

CCSDS_OMM_VERS = 2.0
CREATION_DATE  = 
ORIGINATOR     = 

OBJECT_NAME    = SL-8 R/B
OBJECT_ID      = 1968-040B
CENTER_NAME    = EARTH
REF_FRAME      = TEME
TIME_SYSTEM    = UTC
MEAN_ELEMENT_THEORY = SGP/SGP4

EPOCH          = 2026-03-25T22:44:22.507008
MEAN_MOTION    = 15.03360187
ECCENTRICITY   = .0023347
INCLINATION    = 74.0294
RA_OF_ASC_NODE = 280.4693
ARG_OF_PERICENTER = 97.8519
MEAN_ANOMALY   = 262.5321

EPHEMERIS_TYPE = 0
CLASSIFICATION_TYPE = U
NORAD_CAT_ID   = 3230
ELEMENT_SET_NO = 999
REV_AT_EPOCH   = 9245
BSTAR          = .24888E-3
MEAN_MOTION_DOT = .336E-4
MEAN_MOTION_DDOT = 0

CCSDS_OMM_VERS = 2.0
CREATION_DATE  = 
ORIGINATOR     = 

OBJECT_NAME    = OAO 2
OBJECT_ID      = 1968-110A
CENTER_NAME    = EARTH
REF_FRAME      = TEME
TIME_SYSTEM    = UTC
MEAN_ELEMENT_THEORY = SGP/SGP4

EPOCH          = 2026-03-25T22:13:35.978304
MEAN_MOTION    = 14.47316600
ECCENTRICITY   = .0005967
INCLINATION    = 34.9926
RA_OF_ASC_NODE = 174.5686
ARG_OF_PERICENTER = 323.3382
MEAN_ANOMALY   = 36.6900

EPHEMERIS_TYPE = 0
CLASSIFICATION_TYPE = U
NORAD_CAT_ID   = 3597
ELEMENT_SET_NO = 999
REV_AT_EPOCH   = 2145
BSTAR          = .65189E-4
MEAN_MOTION_DOT = .223E-5
MEAN_MOTION_DDOT = 0

CCSDS_OMM_VERS = 2.0
CREATION_DATE  = 
ORIGINATOR     = 

OBJECT_NAME    = ISIS 1
OBJECT_ID      = 1969-009A
CENTER_NAME    = EARTH
REF_FRAME      = TEME
TIME_SYSTEM    = UTC
MEAN_ELEMENT_THEORY = SGP/SGP4

EPOCH          = 2026-03-26T04:20:47.456448
MEAN_MOTION    = 11.30418393
ECCENTRICITY   = .1707859
INCLINATION    = 88.4514
RA_OF_ASC_NODE = 153.5092
ARG_OF_PERICENTER = 55.8955
MEAN_ANOMALY   = 319.2545

EPHEMERIS_TYPE = 0
CLASSIFICATION_TYPE = U
NORAD_CAT_ID   = 3669
ELEMENT_SET_NO = 999
REV_AT_EPOCH   = 35039
BSTAR          = .64894E-4
MEAN_MOTION_DOT = .112E-5
MEAN_MOTION_DDOT = 0

CCSDS_OMM_VERS = 2.0
CREATION_DATE  = 
ORIGINATOR     = 

OBJECT_NAME    = SERT 2
OBJECT_ID      = 1970-009A
CENTER_NAME    = EARTH
REF_FRAME      = TEME
TIME_SYSTEM    = UTC
MEAN_ELEMENT_THEORY = SGP/SGP4

EPOCH          = 2026-03-26T02:37:13.012032
MEAN_MOTION    = 13.58731323
ECCENTRICITY   = .0005569
INCLINATION    = 99.2780
RA_OF_ASC_NODE = 27.3061
ARG_OF_PERICENTER = 117.5178
MEAN_ANOMALY   = 253.3202

EPHEMERIS_TYPE = 0
CLASSIFICATION_TYPE = U
NORAD_CAT_ID   = 4327
ELEMENT_SET_NO = 999
REV_AT_EPOCH   = 78212
BSTAR          = .72502E-4
MEAN_MOTION_DOT = .12E-6
MEAN_MOTION_DDOT = 0

CCSDS_OMM_VERS = 2.0
CREATION_DATE  = 
ORIGINATOR     = 

OBJECT_NAME    = SL-8 R/B
OBJECT_ID      = 1971-119B
CENTER_NAME    = EARTH
REF_FRAME      = TEME
TIME_SYSTEM    = UTC
MEAN_ELEMENT_THEORY = SGP/SGP4

EPOCH          = 2026-03-25T20:48:26.356608
MEAN_MOTION    = 14.38177664
ECCENTRICITY   = .05467621
INCLINATION    = 73.8860
RA_OF_ASC_NODE = 145.4749
ARG_OF_PERICENTER = 108.6870
MEAN_ANOMALY   = 257.4431

EPHEMERIS_TYPE = 0
CLASSIFICATION_TYPE = U
NORAD_CAT_ID   = 5730
ELEMENT_SET_NO = 999
REV_AT_EPOCH   = 65781
BSTAR          = .32665371E-3
MEAN_MOTION_DOT = .6228E-4
MEAN_MOTION_DDOT = 0

